{
  "type": "FeatureCollection",
  "features": [
    {
      "type": "Feature",
      "properties": {
        "norad_id": 51444,
        "name": "CSG-2",
        "group": "resource",
        "lat": -35.1198674152718,
        "lon": 170.93584346451158,
        "alt_km": 629.2942123041612,
        "timestamp": "2025-12-09T23:33:23.507099+00:00",
        "meta_object_name": "CSG-2",
        "meta_object_id": "2022-008A",
        "meta_epoch": "2025-12-09T13:59:41.667360",
        "meta_mean_motion": 14.82156888,
        "meta_eccentricity": 0.00014714,
        "meta_inclination": 97.8802,
        "meta_ra_of_asc_node": 164.9534,
        "meta_arg_of_pericenter": 83.6837,
        "meta_mean_anomaly": 276.4544,
        "meta_ephemeris_type": 0,
        "meta_classification_type": "U",
        "meta_norad_cat_id": 51444,
        "meta_element_set_no": 999,
        "meta_rev_at_epoch": 20850,
        "meta_bstar": 4.8544349e-05,
        "meta_mean_motion_dot": 3.34e-06,
        "meta_mean_motion_ddot": 0,
        "tle_line1": "1 51444U 22008A   25343.58312115  .00000334  00000+0  48544-4 0  9991",
        "tle_line2": "2 51444  97.8802 164.9534 0001471  83.6837 276.4544 14.82156888208502"
      },
      "geometry": {
        "type": "Point",
        "coordinates": [
          170.93584346451158,
          -35.1198674152718
        ]
      }
    },
    {
      "type": "Feature",
      "properties": {
        "norad_id": 52912,
        "name": "GAOFEN-12 03",
        "group": "resource",
        "lat": -81.41591006253358,
        "lon": -14.63397530792171,
        "alt_km": 639.4239106027189,
        "timestamp": "2025-12-09T23:33:23.507109+00:00",
        "meta_object_name": "GAOFEN-12 03",
        "meta_object_id": "2022-069A",
        "meta_epoch": "2025-12-09T15:51:48.106944",
        "meta_mean_motion": 14.79598313,
        "meta_eccentricity": 0.00022585,
        "meta_inclination": 97.8481,
        "meta_ra_of_asc_node": 231.0808,
        "meta_arg_of_pericenter": 66.6986,
        "meta_mean_anomaly": 293.4463,
        "meta_ephemeris_type": 0,
        "meta_classification_type": "U",
        "meta_norad_cat_id": 52912,
        "meta_element_set_no": 999,
        "meta_rev_at_epoch": 18658,
        "meta_bstar": 0.00027392268,
        "meta_mean_motion_dot": 2.002e-05,
        "meta_mean_motion_ddot": 0,
        "tle_line1": "1 52912U 22069A   25343.66097346  .00002002  00000+0  27392-3 0  9995",
        "tle_line2": "2 52912  97.8481 231.0808 0002258  66.6986 293.4463 14.79598313186587"
      },
      "geometry": {
        "type": "Point",
        "coordinates": [
          -14.63397530792171,
          -81.41591006253358
        ]
      }
    },
    {
      "type": "Feature",
      "properties": {
        "norad_id": 54754,
        "name": "SWOT",
        "group": "resource",
        "lat": -49.87218385263238,
        "lon": -84.40292116654282,
        "alt_km": 900.1338214211455,
        "timestamp": "2025-12-09T23:33:23.507119+00:00",
        "meta_object_name": "SWOT",
        "meta_object_id": "2022-173A",
        "meta_epoch": "2025-12-09T13:30:45.991584",
        "meta_mean_motion": 14.00174006,
        "meta_eccentricity": 3.33e-05,
        "meta_inclination": 77.6104,
        "meta_ra_of_asc_node": 291.278,
        "meta_arg_of_pericenter": 121.6166,
        "meta_mean_anomaly": 238.5019,
        "meta_ephemeris_type": 0,
        "meta_classification_type": "U",
        "meta_norad_cat_id": 54754,
        "meta_element_set_no": 999,
        "meta_rev_at_epoch": 15261,
        "meta_bstar": 6.4814123e-05,
        "meta_mean_motion_dot": 9.3e-07,
        "meta_mean_motion_ddot": 0,
        "tle_line1": "1 54754U 22173A   25343.56303231  .00000093  00000+0  64814-4 0  9998",
        "tle_line2": "2 54754  77.6104 291.2780 0000333 121.6166 238.5019 14.00174006152619"
      },
      "geometry": {
        "type": "Point",
        "coordinates": [
          -84.40292116654282,
          -49.87218385263238
        ]
      }
    },
    {
      "type": "Feature",
      "properties": {
        "norad_id": 57654,
        "name": "GAOFEN-12 04",
        "group": "resource",
        "lat": 73.24326799921721,
        "lon": -127.72706307329496,
        "alt_km": 622.3387184671783,
        "timestamp": "2025-12-09T23:33:23.507129+00:00",
        "meta_object_name": "GAOFEN-12 04",
        "meta_object_id": "2023-123A",
        "meta_epoch": "2025-12-09T15:06:11.941632",
        "meta_mean_motion": 14.79686329,
        "meta_eccentricity": 0.00013607,
        "meta_inclination": 97.9118,
        "meta_ra_of_asc_node": 259.4337,
        "meta_arg_of_pericenter": 72.0438,
        "meta_mean_anomaly": 288.0922,
        "meta_ephemeris_type": 0,
        "meta_classification_type": "U",
        "meta_norad_cat_id": 57654,
        "meta_element_set_no": 999,
        "meta_rev_at_epoch": 12459,
        "meta_bstar": 0.0003271497,
        "meta_mean_motion_dot": 2.405e-05,
        "meta_mean_motion_ddot": 0,
        "tle_line1": "1 57654U 23123A   25343.62930488  .00002405  00000+0  32715-3 0  9996",
        "tle_line2": "2 57654  97.9118 259.4337 0001360  72.0438 288.0922 14.79686329124598"
      },
      "geometry": {
        "type": "Point",
        "coordinates": [
          -127.72706307329496,
          73.24326799921721
        ]
      }
    },
    {
      "type": "Feature",
      "properties": {
        "norad_id": 59065,
        "name": "PARS 1",
        "group": "resource",
        "lat": -44.523492785185034,
        "lon": 127.44779779956369,
        "alt_km": 457.3628247915058,
        "timestamp": "2025-12-09T23:33:23.507139+00:00",
        "meta_object_name": "PARS 1",
        "meta_object_id": "2024-039Q",
        "meta_epoch": "2025-12-09T14:47:29.224608",
        "meta_mean_motion": 15.40863982,
        "meta_eccentricity": 0.00126911,
        "meta_inclination": 97.4638,
        "meta_ra_of_asc_node": 314.4832,
        "meta_arg_of_pericenter": 81.5852,
        "meta_mean_anomaly": 278.6832,
        "meta_ephemeris_type": 0,
        "meta_classification_type": "U",
        "meta_norad_cat_id": 59065,
        "meta_element_set_no": 999,
        "meta_rev_at_epoch": 9940,
        "meta_bstar": 0.00038034268,
        "meta_mean_motion_dot": 0.00015581,
        "meta_mean_motion_ddot": 0,
        "tle_line1": "1 59065U 24039Q   25343.61631047  .00015581  00000+0  38034-3 0  9998",
        "tle_line2": "2 59065  97.4638 314.4832 0012691  81.5852 278.6832 15.40863982 99401"
      },
      "geometry": {
        "type": "Point",
        "coordinates": [
          127.44779779956369,
          -44.523492785185034
        ]
      }
    },
    {
      "type": "Feature",
      "properties": {
        "norad_id": 59371,
        "name": "RESURS-P 4",
        "group": "resource",
        "lat": 81.3071784776331,
        "lon": 166.79223245881877,
        "alt_km": 461.3983118558508,
        "timestamp": "2025-12-09T23:33:23.507150+00:00",
        "meta_object_name": "RESURS-P 4",
        "meta_object_id": "2024-061A",
        "meta_epoch": "2025-12-09T15:18:24.306048",
        "meta_mean_motion": 15.32047343,
        "meta_eccentricity": 0.00017431,
        "meta_inclination": 97.2544,
        "meta_ra_of_asc_node": 290.0313,
        "meta_arg_of_pericenter": 52.9128,
        "meta_mean_anomaly": 307.2273,
        "meta_ephemeris_type": 0,
        "meta_classification_type": "U",
        "meta_norad_cat_id": 59371,
        "meta_element_set_no": 999,
        "meta_rev_at_epoch": 9473,
        "meta_bstar": 0.00019595523,
        "meta_mean_motion_dot": 5.987e-05,
        "meta_mean_motion_ddot": 0,
        "tle_line1": "1 59371U 24061A   25343.63778132  .00005987  00000+0  19596-3 0  9993",
        "tle_line2": "2 59371  97.2544 290.0313 0001743  52.9128 307.2273 15.32047343 94737"
      },
      "geometry": {
        "type": "Point",
        "coordinates": [
          166.79223245881877,
          81.3071784776331
        ]
      }
    },
    {
      "type": "Feature",
      "properties": {
        "norad_id": 59625,
        "name": "LEGION 1",
        "group": "resource",
        "lat": 64.37238905644466,
        "lon": -105.37011901154122,
        "alt_km": 512.7530258729594,
        "timestamp": "2025-12-09T23:33:23.507160+00:00",
        "meta_object_name": "LEGION 1",
        "meta_object_id": "2024-081A",
        "meta_epoch": "2025-12-09T15:08:05.876448",
        "meta_mean_motion": 15.16431377,
        "meta_eccentricity": 0.0004233,
        "meta_inclination": 97.5211,
        "meta_ra_of_asc_node": 58.2954,
        "meta_arg_of_pericenter": 330.8327,
        "meta_mean_anomaly": 29.2669,
        "meta_ephemeris_type": 0,
        "meta_classification_type": "U",
        "meta_norad_cat_id": 59625,
        "meta_element_set_no": 999,
        "meta_rev_at_epoch": 8880,
        "meta_bstar": 0.00041047203,
        "meta_mean_motion_dot": 7.918e-05,
        "meta_mean_motion_ddot": 0,
        "tle_line1": "1 59625U 24081A   25343.63062357  .00007918  00000+0  41047-3 0  9994",
        "tle_line2": "2 59625  97.5211  58.2954 0004233 330.8327  29.2669 15.16431377 88801"
      },
      "geometry": {
        "type": "Point",
        "coordinates": [
          -105.37011901154122,
          64.37238905644466
        ]
      }
    }
  ]
}